[{"OBJECT_NAME":"STARLINK-31768","OBJECT_ID":"2024-080R","EPOCH":"2026-03-09T07:28:13.060128","MEAN_MOTION":15.27578545,"ECCENTRICITY":0.00011154,"INCLINATION":43.005,"RA_OF_ASC_NODE":40.1412,"ARG_OF_PERICENTER":276.1558,"MEAN_ANOMALY":83.9167,"EPHEMERIS_TYPE":0,"CLASSIFICATION_TYPE":"U","NORAD_CAT_ID":59616,"ELEMENT_SET_NO":999,"REV_AT_EPOCH":10447,"BSTAR":-4.19702e-7,"MEAN_MOTION_DOT":-2.74e-6,"MEAN_MOTION_DDOT":0},{"OBJECT_NAME":"COSMOS 2535 DEB","OBJECT_ID":"2019-039M","EPOCH":"2026-03-08T03:25:35.903424","MEAN_MOTION":15.28322551,"ECCENTRICITY":0.0014917,"INCLINATION":97.5619,"RA_OF_ASC_NODE":139.2722,"ARG_OF_PERICENTER":329.0964,"MEAN_ANOMALY":30.9396,"EPHEMERIS_TYPE":0,"CLASSIFICATION_TYPE":"U","NORAD_CAT_ID":44641,"ELEMENT_SET_NO":999,"REV_AT_EPOCH":35167,"BSTAR":0.0011539757,"MEAN_MOTION_DOT":0.0003196,"MEAN_MOTION_DDOT":0}]
